     3.04           N: GNSS NAV DATA    E: GALILEO          RINEX VERSION / TYPE
sbf2rin-15.6.1                          20230215 131602 UTC PGM / RUN BY / DATE 
GAL    1.0000E+02  2.8906E-01  1.1322E-02  0.0000E+00       IONOSPHERIC CORR    
GAGP  0.0000000000E+00 0.000000000E+00  50400 2244          TIME SYSTEM CORR    
GAUT  5.5879354477E-09 0.000000000E+00  50400 2244          TIME SYSTEM CORR    
    18                                                      LEAP SECONDS        
                                                            END OF HEADER       
E11 2023 01 08 12 00 00 3.687586286105E-04 1.676738747847E-10-3.469446951954E-18
     7.200000000000E+01 9.215625000000E+01 2.806188317579E-09-7.925829929602E-01
     4.360452294350E-06 2.582393353805E-04-1.303851604462E-07 5.440604492188E+03
     4.320000000000E+04 2.793967723846E-08-1.596082778020E+00 6.146728992462E-08
     9.954913909665E-01 3.601250000000E+02 1.801551240240E-01-5.737024684392E-09
     1.514348792991E-10 2.580000000000E+02 2.244000000000E+03
     2.500000000000E-01 0.000000000000E+00-1.303851604462E-08 0.000000000000E+00
     4.324000000000E+04
E09 2023 01 08 12 00 00-7.927002734505E-04-1.352873368887E-11 0.000000000000E+00
     7.200000000000E+01-7.640625000000E+01 2.778330014311E-09-3.066728577212E+00
    -3.546476364136E-06 1.653386279941E-04 1.127459108829E-05 5.440614549637E+03
     4.320000000000E+04 3.911554813385E-08 4.981723416434E-01-3.725290298462E-09
     9.639953557388E-01 1.001250000000E+02 3.749392313468E-01-5.272005314468E-09
     4.028739241732E-10 2.580000000000E+02 2.244000000000E+03
     2.500000000000E-01 0.000000000000E+00 2.328306436539E-09 0.000000000000E+00
     4.324000000000E+04
E05 2023 01 08 12 00 00-1.071954611689E-04 3.637978807092E-12 0.000000000000E+00
     7.200000000000E+01-7.115625000000E+01 2.901192274875E-09 2.819387758360E-01
    -3.378838300705E-06 8.328328840435E-05 1.161918044090E-05 5.440624168396E+03
     4.320000000000E+04 5.029141902924E-08 5.003947526614E-01-6.705522537231E-08
     9.580532780103E-01 9.087500000000E+01 2.519844678400E+00-5.278076995950E-09
     3.700154126271E-10 2.580000000000E+02 2.244000000000E+03
     2.500000000000E-01 0.000000000000E+00 3.958120942116E-09 0.000000000000E+00
     4.324000000000E+04
E26 2023 01 08 12 00 00-1.857532944996E-03 1.114131009672E-11 0.000000000000E+00
     7.200000000000E+01 1.164687500000E+02 2.914049953306E-09-2.861148795703E+00
     5.513429641724E-06 3.137384774163E-04-4.172325134277E-07 5.440605985641E+03
     4.320000000000E+04 3.911554813385E-08-1.595985666592E+00-6.519258022308E-08
     9.919203889171E-01 3.609687500000E+02-1.672042613686E+00-5.850600843866E-09
     1.817932867058E-10 2.580000000000E+02 2.244000000000E+03
     2.500000000000E-01 0.000000000000E+00-4.423782229424E-09 0.000000000000E+00
     4.324000000000E+04
E31 2023 01 08 12 10 00-5.127661861479E-04-1.037392394210E-12 0.000000000000E+00
     7.300000000000E+01-1.759375000000E+01 3.156202897091E-09 2.740712756979E+00
    -8.959323167801E-07 2.396232448518E-04 7.675960659981E-06 5.440610157013E+03
     4.380000000000E+04 5.587935447693E-09 2.598396563521E+00 3.725290298462E-09
     9.707561760513E-01 1.793437500000E+02-3.945551926589E-01-5.407368095729E-09
    -5.539516457381E-10 5.170000000000E+02 2.244000000000E+03
     2.500000000000E-01 0.000000000000E+00 5.122274160385E-09 5.820766091347E-09
     4.380500000000E+04
E12 2023 01 08 12 10 00-3.766684094444E-04-1.357136625302E-11 0.000000000000E+00
     7.300000000000E+01 9.762500000000E+01 2.779044329780E-09 7.278193067670E-01
     4.537403583527E-06 3.509486559778E-04-3.725290298462E-08 5.440608392715E+03
     4.380000000000E+04-3.166496753693E-08-1.596092155325E+00 1.676380634308E-08
     9.955044006970E-01 3.580937500000E+02-4.487399111099E-01-5.687736917073E-09
     1.514348792991E-10 5.170000000000E+02 2.244000000000E+03
     2.500000000000E-01 0.000000000000E+00-1.024454832077E-08-1.164153218269E-08
     4.380500000000E+04
E33 2023 01 08 12 10 00-4.545902484097E-04 6.110667527537E-13 0.000000000000E+00
     7.300000000000E+01 1.042187500000E+02 2.794759270084E-09 2.200765717263E+00
     4.837289452553E-06 3.395846579224E-04-2.477318048477E-07 5.440603836060E+03
     4.380000000000E+04-6.891787052155E-08-1.598292057885E+00-4.284083843231E-08
     9.986127636814E-01 3.596562500000E+02-1.121885756051E+00-5.728095741037E-09
     1.346484657919E-10 5.170000000000E+02 2.244000000000E+03
     2.500000000000E-01 0.000000000000E+00-3.492459654808E-09-3.958120942116E-09
     4.380500000000E+04
E10 2023 01 08 12 10 00-5.035900394432E-04-2.742694960034E-12 0.000000000000E+00
     7.300000000000E+01 9.675000000000E+01 2.736542559410E-09 2.795473737879E+00
     4.526227712631E-06 7.832283154130E-05-3.725290298462E-08 5.440604570389E+03
     4.380000000000E+04-4.097819328308E-08-1.600080896558E+00 3.166496753693E-08
     9.984924445210E-01 3.596875000000E+02-2.901874062177E+00-5.668807557160E-09
     1.728643433509E-10 5.170000000000E+02 2.244000000000E+03
     2.500000000000E-01 0.000000000000E+00 6.984919309616E-10 6.984919309616E-10
     4.380500000000E+04
E11 2023 01 08 12 10 00 3.688575234264E-04 1.676738747847E-10-3.469446951954E-18
     7.300000000000E+01 9.215625000000E+01 2.806188317579E-09-7.181974561040E-01
     4.360452294350E-06 2.582393353805E-04-1.303851604462E-07 5.440604492188E+03
     4.380000000000E+04 2.793967723846E-08-1.596086220266E+00 6.146728992462E-08
     9.954914816674E-01 3.601250000000E+02 1.801551240240E-01-5.737024684392E-09
     1.514348792991E-10 5.170000000000E+02 2.244000000000E+03
     2.500000000000E-01 0.000000000000E+00-1.303851604462E-08-1.466833055019E-08
     4.380500000000E+04
E01 2023 01 08 12 10 00-5.919209797867E-04-5.542233338929E-12 0.000000000000E+00
     7.300000000000E+01-1.656250000000E+01 3.161917420838E-09 2.900295400945E+00
    -7.543712854385E-07 2.660002792254E-04 7.875263690948E-06 5.440603010178E+03
     4.380000000000E+04-7.450580596924E-09 2.601452475040E+00-1.862645149231E-09
     9.711964836718E-01 1.761250000000E+02 2.837511411568E-01-5.389510209019E-09
    -5.753811097899E-10 5.170000000000E+02 2.244000000000E+03
     2.500000000000E-01 0.000000000000E+00 2.328306436539E-10 2.328306436539E-10
     4.380500000000E+04
E12 2023 01 08 12 10 00-3.766670706682E-04-1.357136625302E-11 0.000000000000E+00
     7.300000000000E+01 9.762500000000E+01 2.779044329780E-09 7.278193067670E-01
     4.537403583527E-06 3.509486559778E-04-3.725290298462E-08 5.440608392715E+03
     4.380000000000E+04-3.166496753693E-08-1.596092155325E+00 1.676380634308E-08
     9.955044006970E-01 3.580937500000E+02-4.487399111099E-01-5.687736917073E-09
     1.514348792991E-10 2.580000000000E+02 2.244000000000E+03
     2.500000000000E-01 0.000000000000E+00-1.024454832077E-08 0.000000000000E+00
     4.384000000000E+04
E31 2023 01 08 12 10 00-5.127668264322E-04-1.037392394210E-12 0.000000000000E+00
     7.300000000000E+01-1.759375000000E+01 3.156202897091E-09 2.740712756979E+00
    -8.959323167801E-07 2.396232448518E-04 7.675960659981E-06 5.440610157013E+03
     4.380000000000E+04 5.587935447693E-09 2.598396563521E+00 3.725290298462E-09
     9.707561760513E-01 1.793437500000E+02-3.945551926589E-01-5.407368095729E-09
    -5.539516457381E-10 2.580000000000E+02 2.244000000000E+03
     2.500000000000E-01 0.000000000000E+00 5.122274160385E-09 0.000000000000E+00
     4.384000000000E+04
E33 2023 01 08 12 10 00-4.545897827484E-04 6.110667527537E-13 0.000000000000E+00
     7.300000000000E+01 1.042187500000E+02 2.794759270084E-09 2.200765717263E+00
     4.837289452553E-06 3.395846579224E-04-2.477318048477E-07 5.440603836060E+03
     4.380000000000E+04-6.891787052155E-08-1.598292057885E+00-4.284083843231E-08
     9.986127636814E-01 3.596562500000E+02-1.121885756051E+00-5.728095741037E-09
     1.346484657919E-10 2.580000000000E+02 2.244000000000E+03
     2.500000000000E-01 0.000000000000E+00-3.492459654808E-09 0.000000000000E+00
     4.384000000000E+04
E10 2023 01 08 12 10 00-5.035901558585E-04-2.742694960034E-12 0.000000000000E+00
     7.300000000000E+01 9.675000000000E+01 2.736542559410E-09 2.795473737879E+00
     4.526227712631E-06 7.832283154130E-05-3.725290298462E-08 5.440604570389E+03
     4.380000000000E+04-4.097819328308E-08-1.600080896558E+00 3.166496753693E-08
     9.984924445210E-01 3.596875000000E+02-2.901874062177E+00-5.668807557160E-09
     1.728643433509E-10 2.580000000000E+02 2.244000000000E+03
     2.500000000000E-01 0.000000000000E+00 6.984919309616E-10 0.000000000000E+00
     4.384000000000E+04
E01 2023 01 08 12 10 00-5.919210379943E-04-5.542233338929E-12 0.000000000000E+00
     7.300000000000E+01-1.656250000000E+01 3.161917420838E-09 2.900295400945E+00
    -7.543712854385E-07 2.660002792254E-04 7.875263690948E-06 5.440603010178E+03
     4.380000000000E+04-7.450580596924E-09 2.601452475040E+00-1.862645149231E-09
     9.711964836718E-01 1.761250000000E+02 2.837511411568E-01-5.389510209019E-09
    -5.753811097899E-10 2.580000000000E+02 2.244000000000E+03
     2.500000000000E-01 0.000000000000E+00 2.328306436539E-10 0.000000000000E+00
     4.384000000000E+04
E11 2023 01 08 12 10 00 3.688592114486E-04 1.676738747847E-10-3.469446951954E-18
     7.300000000000E+01 9.215625000000E+01 2.806188317579E-09-7.181974561040E-01
     4.360452294350E-06 2.582393353805E-04-1.303851604462E-07 5.440604492188E+03
     4.380000000000E+04 2.793967723846E-08-1.596086220266E+00 6.146728992462E-08
     9.954914816674E-01 3.601250000000E+02 1.801551240240E-01-5.737024684392E-09
     1.514348792991E-10 2.580000000000E+02 2.244000000000E+03
     2.500000000000E-01 0.000000000000E+00-1.303851604462E-08 0.000000000000E+00
     4.384000000000E+04
